[{"OBJECT_NAME":"ONEWEB-0290","OBJECT_ID":"2021-075F","EPOCH":"2026-03-09T22:19:04.093536","MEAN_MOTION":13.17650403,"ECCENTRICITY":0.00023815,"INCLINATION":87.9158,"RA_OF_ASC_NODE":25.5567,"ARG_OF_PERICENTER":88.4079,"MEAN_ANOMALY":271.7325,"EPHEMERIS_TYPE":0,"CLASSIFICATION_TYPE":"U","NORAD_CAT_ID":49080,"ELEMENT_SET_NO":999,"REV_AT_EPOCH":22054,"BSTAR":0.00022685575,"MEAN_MOTION_DOT":1.01e-6,"MEAN_MOTION_DDOT":0},{"OBJECT_NAME":"DELTA 1 DEB","OBJECT_ID":"1975-052LY","EPOCH":"2026-03-09T09:11:27.158208","MEAN_MOTION":13.31678023,"ECCENTRICITY":0.00702073,"INCLINATION":99.693,"RA_OF_ASC_NODE":255.1117,"ARG_OF_PERICENTER":268.4263,"MEAN_ANOMALY":211.2195,"EPHEMERIS_TYPE":0,"CLASSIFICATION_TYPE":"U","NORAD_CAT_ID":42639,"ELEMENT_SET_NO":999,"REV_AT_EPOCH":59752,"BSTAR":0.0001782332,"MEAN_MOTION_DOT":4.5e-7,"MEAN_MOTION_DDOT":0}]
